[
    {
        "Altitude(m)": 607911.0046943218,
        "Argument of Periapsis(deg)": 0.0,
        "Eccentricity": 0.0,
        "Inclination(deg)": 60.0,
        "Latitude(deg)": -14.292919737747441,
        "Longitude(deg)": 13.442678624991492,
        "Mean Anomaly(deg)": -163.6364,
        "RAAN(deg)": 285.0,
        "Satellite Name": "Test1 1266",
        "Satellite Number": 1266,
        "Semi-Major Axis(m)": 6980739.136638005,
        "Time(s)": 0
    },
    {
        "Altitude(m)": 608060.2380266425,
        "Argument of Periapsis(deg)": 0.00010418945913296404,
        "Eccentricity": 0.0,
        "Inclination(deg)": 60.0,
        "Latitude(deg)": -14.826580519245868,
        "Longitude(deg)": 13.731289246301769,
        "Mean Anomaly(deg)": -163.01629385453816,
        "RAAN(deg)": 284.9995799508602,
        "Satellite Name": "Test1 1266",
        "Satellite Number": 1266,
        "Semi-Major Axis(m)": 6980739.136638005,
        "Time(s)": 10
    },
    {
        "Altitude(m)": 608211.9015588573,
        "Argument of Periapsis(deg)": 0.0002083789182659281,
        "Eccentricity": 0.0,
        "Inclination(deg)": 60.0,
        "Latitude(deg)": -15.35972507869918,
        "Longitude(deg)": 14.021508659279103,
        "Mean Anomaly(deg)": -162.39618770907632,
        "RAAN(deg)": 284.9991599017205,
        "Satellite Name": "Test1 1266",
        "Satellite Number": 1266,
        "Semi-Major Axis(m)": 6980739.136638005,
        "Time(s)": 20
    },
    {
        "Altitude(m)": 608365.9472096674,
        "Argument of Periapsis(deg)": 0.00031256837739889213,
        "Eccentricity": 0.0,
        "Inclination(deg)": 60.0,
        "Latitude(deg)": -15.892332206847456,
        "Longitude(deg)": 14.313404331428538,
        "Mean Anomaly(deg)": -161.7760815636145,
        "RAAN(deg)": 284.9987398525808,
        "Satellite Name": "Test1 1266",
        "Satellite Number": 1266,
        "Semi-Major Axis(m)": 6980739.136638005,
        "Time(s)": 30
    },
    {
        "Altitude(m)": 608522.3257002203,
        "Argument of Periapsis(deg)": 0.0004167578365318562,
        "Eccentricity": 0.0,
        "Inclination(deg)": 60.0,
        "Latitude(deg)": -16.424380362169135,
        "Longitude(deg)": 14.607045249260787,
        "Mean Anomaly(deg)": -161.15597541815265,
        "RAAN(deg)": 284.998319803441,
        "Satellite Name": "Test1 1266",
        "Satellite Number": 1266,
        "Semi-Major Axis(m)": 6980739.136638005,
        "Time(s)": 40
    },
    {
        "Altitude(m)": 608680.9865754503,
        "Argument of Periapsis(deg)": 0.0005209472956648203,
        "Eccentricity": 0.0,
        "Inclination(deg)": 60.0,
        "Latitude(deg)": -16.955847654862094,
        "Longitude(deg)": 14.902500953621287,
        "Mean Anomaly(deg)": -160.5358692726908,
        "RAAN(deg)": 284.9978997543013,
        "Satellite Name": "Test1 1266",
        "Satellite Number": 1266,
        "Semi-Major Axis(m)": 6980739.136638005,
        "Time(s)": 50
    },
    {
        "Altitude(m)": 608841.8782259302,
        "Argument of Periapsis(deg)": 0.0006251367547977843,
        "Eccentricity": 0.0,
        "Inclination(deg)": 60.0,
        "Latitude(deg)": -17.486711830341523,
        "Longitude(deg)": 15.19984208872973,
        "Mean Anomaly(deg)": -159.91576312722904,
        "RAAN(deg)": 284.99747970516154,
        "Satellite Name": "Test1 1266",
        "Satellite Number": 1266,
        "Semi-Major Axis(m)": 6980739.136638005,
        "Time(s)": 60
    },
    {
        "Altitude(m)": 609004.9479102928,
        "Argument of Periapsis(deg)": 0.0007293262139307483,
        "Eccentricity": 0.0,
        "Inclination(deg)": 60.0,
        "Latitude(deg)": -18.016950252234828,
        "Longitude(deg)": 15.499140952083078,
        "Mean Anomaly(deg)": -159.29565698176714,
        "RAAN(deg)": 284.9970596560218,
        "Satellite Name": "Test1 1266",
        "Satellite Number": 1266,
        "Semi-Major Axis(m)": 6980739.136638005,
        "Time(s)": 70
    },
    {
        "Altitude(m)": 609170.1417781861,
        "Argument of Periapsis(deg)": 0.0008335156730637124,
        "Eccentricity": 0.0,
        "Inclination(deg)": 60.0,
        "Latitude(deg)": -18.546539884850393,
        "Longitude(deg)": 15.800470532370213,
        "Mean Anomaly(deg)": -158.6755508363054,
        "RAAN(deg)": 284.99663960688207,
        "Satellite Name": "Test1 1266",
        "Satellite Number": 1266,
        "Semi-Major Axis(m)": 6980739.136638005,
        "Time(s)": 80
    },
    {
        "Altitude(m)": 609337.4048937644,
        "Argument of Periapsis(deg)": 0.0009377051321966765,
        "Eccentricity": 0.0,
        "Inclination(deg)": 60.0,
        "Latitude(deg)": -19.075457275093772,
        "Longitude(deg)": 16.10390506116845,
        "Mean Anomaly(deg)": -158.05544469084356,
        "RAAN(deg)": 284.9962195577423,
        "Satellite Name": "Test1 1266",
        "Satellite Number": 1266,
        "Semi-Major Axis(m)": 6980739.136638005,
        "Time(s)": 90
    },
    {
        "Altitude(m)": 609506.6812596982,
        "Argument of Periapsis(deg)": 0.0010418945913296407,
        "Eccentricity": 0.0,
        "Inclination(deg)": 60.0,
        "Latitude(deg)": -19.603678533805365,
        "Longitude(deg)": 16.409520565568,
        "Mean Anomaly(deg)": -157.43533854538168,
        "RAAN(deg)": 284.99579950860254,
        "Satellite Name": "Test1 1266",
        "Satellite Number": 1266,
        "Semi-Major Axis(m)": 6980739.136638005,
        "Time(s)": 100
    },
    {
        "Altitude(m)": 609677.9138416771,
        "Argument of Periapsis(deg)": 0.0011460840504626045,
        "Eccentricity": 0.0,
        "Inclination(deg)": 60.0,
        "Latitude(deg)": -20.131179316498308,
        "Longitude(deg)": 16.717393908870154,
        "Mean Anomaly(deg)": -156.81523239991986,
        "RAAN(deg)": 284.99537945946287,
        "Satellite Name": "Test1 1266",
        "Satellite Number": 1266,
        "Semi-Major Axis(m)": 6980739.136638005,
        "Time(s)": 110
    },
    {
        "Altitude(m)": 609851.0445933987,
        "Argument of Periapsis(deg)": 0.0012502735095955685,
        "Eccentricity": 0.0,
        "Inclination(deg)": 60.0,
        "Latitude(deg)": -20.657934803464727,
        "Longitude(deg)": 17.027603345123563,
        "Mean Anomaly(deg)": -156.19512625445805,
        "RAAN(deg)": 284.9949594103231,
        "Satellite Name": "Test1 1266",
        "Satellite Number": 1266,
        "Semi-Major Axis(m)": 6980739.136638005,
        "Time(s)": 120
    },
    {
        "Altitude(m)": 610026.0144820621,
        "Argument of Periapsis(deg)": 0.0013544629687285324,
        "Eccentricity": 0.0,
        "Inclination(deg)": 60.0,
        "Latitude(deg)": -21.183919679223234,
        "Longitude(deg)": 17.34022907463805,
        "Mean Anomaly(deg)": -155.57502010899628,
        "RAAN(deg)": 284.99453936118334,
        "Satellite Name": "Test1 1266",
        "Satellite Number": 1266,
        "Semi-Major Axis(m)": 6980739.136638005,
        "Time(s)": 130
    },
    {
        "Altitude(m)": 610202.7635142953,
        "Argument of Periapsis(deg)": 0.0014586524278614966,
        "Eccentricity": 0.0,
        "Inclination(deg)": 60.0,
        "Latitude(deg)": -21.709108111285353,
        "Longitude(deg)": 17.655352287617262,
        "Mean Anomaly(deg)": -154.9549139635344,
        "RAAN(deg)": 284.99411931204355,
        "Satellite Name": "Test1 1266",
        "Satellite Number": 1266,
        "Semi-Major Axis(m)": 6980739.136638005,
        "Time(s)": 140
    },
    {
        "Altitude(m)": 610381.2307625482,
        "Argument of Periapsis(deg)": 0.0015628418869944607,
        "Eccentricity": 0.0,
        "Inclination(deg)": 60.0,
        "Latitude(deg)": -22.23347372820301,
        "Longitude(deg)": 17.973055721663865,
        "Mean Anomaly(deg)": -154.3348078180725,
        "RAAN(deg)": 284.9936992629039,
        "Satellite Name": "Test1 1266",
        "Satellite Number": 1266,
        "Semi-Major Axis(m)": 6980739.136638005,
        "Time(s)": 150
    },
    {
        "Altitude(m)": 610561.35439192,
        "Argument of Periapsis(deg)": 0.0016670313461274247,
        "Eccentricity": 0.0,
        "Inclination(deg)": 60.0,
        "Latitude(deg)": -22.756989596871986,
        "Longitude(deg)": 18.293424220290508,
        "Mean Anomaly(deg)": -153.71470167261077,
        "RAAN(deg)": 284.99327921376414,
        "Satellite Name": "Test1 1266",
        "Satellite Number": 1266,
        "Semi-Major Axis(m)": 6980739.136638005,
        "Time(s)": 160
    },
    {
        "Altitude(m)": 610743.071687401,
        "Argument of Periapsis(deg)": 0.0017712208052603888,
        "Eccentricity": 0.0,
        "Inclination(deg)": 60.0,
        "Latitude(deg)": -23.27962819906322,
        "Longitude(deg)": 18.616543779567913,
        "Mean Anomaly(deg)": -153.09459552714893,
        "RAAN(deg)": 284.99285916462435,
        "Satellite Name": "Test1 1266",
        "Satellite Number": 1266,
        "Semi-Major Axis(m)": 6980739.136638005,
        "Time(s)": 170
    },
    {
        "Altitude(m)": 610926.3190815499,
        "Argument of Periapsis(deg)": 0.001875410264393353,
        "Eccentricity": 0.0,
        "Inclination(deg)": 60.0,
        "Latitude(deg)": -23.801361407142874,
        "Longitude(deg)": 18.942502108651066,
        "Mean Anomaly(deg)": -152.47448938168705,
        "RAAN(deg)": 284.9924391154846,
        "Satellite Name": "Test1 1266",
        "Satellite Number": 1266,
        "Semi-Major Axis(m)": 6980739.136638005,
        "Time(s)": 180
    },
    {
        "Altitude(m)": 611111.0321825239,
        "Argument of Periapsis(deg)": 0.0019795997235263173,
        "Eccentricity": 0.0,
        "Inclination(deg)": 60.0,
        "Latitude(deg)": -24.322160458953764,
        "Longitude(deg)": 19.27138919130761,
        "Mean Anomaly(deg)": -151.85438323622526,
        "RAAN(deg)": 284.99201906634494,
        "Satellite Name": "Test1 1266",
        "Satellite Number": 1266,
        "Semi-Major Axis(m)": 6980739.136638005,
        "Time(s)": 190
    }
]